{"type": "FeatureCollection", "features": [ {"type": "Feature", "properties": {"norad_id": 35242, "name": "FENGYUN 1C DEB", "group": "fengyun-1c-debris", "lat": -63.12101539024955, "lon": -145.7284140980076, "alt_km": 1077.4710280255294, "timestamp": "2025-12-27T22:26:48.890675+00:00", "meta": {"OBJECT_NAME": "FENGYUN 1C DEB", "OBJECT_ID": "1999-025DRA", "EPOCH": "2025-12-27T10:42:20.644128", "MEAN_MOTION": 13.52379433, "ECCENTRICITY": 0.0301734, "INCLINATION": 99.9685, "RA_OF_ASC_NODE": 54.0813, "ARG_OF_PERICENTER": 152.592, "MEAN_ANOMALY": 228.2404, "EPHEMERIS_TYPE": 0, "CLASSIFICATION_TYPE": "U", "NORAD_CAT_ID": 35242, "ELEMENT_SET_NO": 999, "REV_AT_EPOCH": 58326, "BSTAR": 0.0014124, "MEAN_MOTION_DOT": 1.198e-05, "MEAN_MOTION_DDOT": 0}, "tle": {"line1": "1 35242U 99025DRA 25361.44607227  .00001198  00000+0  14124-2 0  9992", "line2": "2 35242  99.9685  54.0813 0301734 152.5920 228.2404 13.52379433583263"}}, "geometry": {"type": "Point", "coordinates": [-145.7284140980076, -63.12101539024955]}}, {"type": "Feature", "properties": {"norad_id": 35243, "name": "FENGYUN 1C DEB", "group": "fengyun-1c-debris", "lat": 76.63750923713087, "lon": -56.25278119937851, "alt_km": 612.4892087119651, "timestamp": "2025-12-27T22:26:48.890685+00:00", "meta": {"OBJECT_NAME": "FENGYUN 1C DEB", "OBJECT_ID": "1999-025DRB", "EPOCH": "2025-12-27T04:14:11.259744", "MEAN_MOTION": 14.87550457, "ECCENTRICITY": 0.0065477, "INCLINATION": 98.878, "RA_OF_ASC_NODE": 81.7497, "ARG_OF_PERICENTER": 210.9932, "MEAN_ANOMALY": 148.7411, "EPHEMERIS_TYPE": 0, "CLASSIFICATION_TYPE": "U", "NORAD_CAT_ID": 35243, "ELEMENT_SET_NO": 999, "REV_AT_EPOCH": 91215, "BSTAR": 0.0030431021, "MEAN_MOTION_DOT": 0.00028769, "MEAN_MOTION_DDOT": 0}, "tle": {"line1": "1 35243U 99025DRB 25361.17651921  .00028769  00000+0  30431-2 0  9995", "line2": "2 35243  98.8780  81.7497 0065477 210.9932 148.7411 14.87550457912150"}}, "geometry": {"type": "Point", "coordinates": [-56.25278119937851, 76.63750923713087]}}, {"type": "Feature", "properties": {"norad_id": 35244, "name": "FENGYUN 1C DEB", "group": "fengyun-1c-debris", "lat": -0.8522767555679354, "lon": 41.938019276587696, "alt_km": 896.4225945106518, "timestamp": "2025-12-27T22:26:48.890695+00:00", "meta": {"OBJECT_NAME": "FENGYUN 1C DEB", "OBJECT_ID": "1999-025DRC", "EPOCH": "2025-12-27T01:57:55.815264", "MEAN_MOTION": 14.06654848, "ECCENTRICITY": 0.00720021, "INCLINATION": 98.8392, "RA_OF_ASC_NODE": 40.9717, "ARG_OF_PERICENTER": 117.6514, "MEAN_ANOMALY": 243.1987, "EPHEMERIS_TYPE": 0, "CLASSIFICATION_TYPE": "U", "NORAD_CAT_ID": 35244, "ELEMENT_SET_NO": 999, "REV_AT_EPOCH": 66023, "BSTAR": 0.00043537828, "MEAN_MOTION_DOT": 6.97e-06, "MEAN_MOTION_DDOT": 0}, "tle": {"line1": "1 35244U 99025DRC 25361.08189601  .00000697  00000+0  43538-3 0  9990", "line2": "2 35244  98.8392  40.9717 0072002 117.6514 243.1987 14.06654848660230"}}, "geometry": {"type": "Point", "coordinates": [41.938019276587696, -0.8522767555679354]}}, {"type": "Feature", "properties": {"norad_id": 35245, "name": "FENGYUN 1C DEB", "group": "fengyun-1c-debris", "lat": -69.68392798007737, "lon": -117.92234883168717, "alt_km": 815.8016626958124, "timestamp": "2025-12-27T22:26:48.890705+00:00", "meta": {"OBJECT_NAME": "FENGYUN 1C DEB", "OBJECT_ID": "1999-025DRD", "EPOCH": "2025-12-27T11:22:21.154944", "MEAN_MOTION": 14.13183112, "ECCENTRICITY": 0.0060285, "INCLINATION": 99.0836, "RA_OF_ASC_NODE": 87.2113, "ARG_OF_PERICENTER": 229.2512, "MEAN_ANOMALY": 195.964, "EPHEMERIS_TYPE": 0, "CLASSIFICATION_TYPE": "U", "NORAD_CAT_ID": 35245, "ELEMENT_SET_NO": 999, "REV_AT_EPOCH": 87985, "BSTAR": 0.0020512, "MEAN_MOTION_DOT": 3.86e-05, "MEAN_MOTION_DDOT": 0}, "tle": {"line1": "1 35245U 99025DRD 25361.47385596  .00003860  00000+0  20512-2 0  9996", "line2": "2 35245  99.0836  87.2113 0060285 229.2512 195.9640 14.13183112879858"}}, "geometry": {"type": "Point", "coordinates": [-117.92234883168717, -69.68392798007737]}}, {"type": "Feature", "properties": {"norad_id": 36147, "name": "FENGYUN 1C DEB", "group": "fengyun-1c-debris", "lat": -71.22603011634128, "lon": -138.21525537136066, "alt_km": 800.3239975336119, "timestamp": "2025-12-27T22:26:48.890715+00:00", "meta": {"OBJECT_NAME": "FENGYUN 1C DEB", "OBJECT_ID": "1999-025DRU", "EPOCH": "2025-12-20T21:33:23.692032", "MEAN_MOTION": 13.46553882, "ECCENTRICITY": 0.0442924, "INCLINATION": 98.5255, "RA_OF_ASC_NODE": 61.9559, "ARG_OF_PERICENTER": 242.0095, "MEAN_ANOMALY": 113.5561, "EPHEMERIS_TYPE": 0, "CLASSIFICATION_TYPE": "U", "NORAD_CAT_ID": 36147, "ELEMENT_SET_NO": 999, "REV_AT_EPOCH": 60107, "BSTAR": 0.0014721, "MEAN_MOTION_DOT": 1.576e-05, "MEAN_MOTION_DDOT": 0}, "tle": {"line1": "1 36147U 99025DRU 25354.89819088  .00001576  00000+0  14721-2 0  9991", "line2": "2 36147  98.5255  61.9559 0442924 242.0095 113.5561 13.46553882601070"}}, "geometry": {"type": "Point", "coordinates": [-138.21525537136066, -71.22603011634128]}}, {"type": "Feature", "properties": {"norad_id": 36148, "name": "FENGYUN 1C DEB", "group": "fengyun-1c-debris", "lat": 36.647544869357716, "lon": 37.543343698121596, "alt_km": 1145.717859031698, "timestamp": "2025-12-27T22:26:48.890725+00:00", "meta": {"OBJECT_NAME": "FENGYUN 1C DEB", "OBJECT_ID": "1999-025DRV", "EPOCH": "2025-12-19T19:33:59.340096", "MEAN_MOTION": 13.85003317, "ECCENTRICITY": 0.02860047, "INCLINATION": 98.4226, "RA_OF_ASC_NODE": 203.9107, "ARG_OF_PERICENTER": 330.6122, "MEAN_ANOMALY": 27.9209, "EPHEMERIS_TYPE": 0, "CLASSIFICATION_TYPE": "U", "NORAD_CAT_ID": 36148, "ELEMENT_SET_NO": 999, "REV_AT_EPOCH": 90342, "BSTAR": 0.0023912593, "MEAN_MOTION_DOT": 3.68e-05, "MEAN_MOTION_DDOT": 0}, "tle": {"line1": "1 36148U 99025DRV 25353.81527014  .00003680  00000+0  23913-2 0  9999", "line2": "2 36148  98.4226 203.9107 0286004 330.6122  27.9209 13.85003317903422"}}, "geometry": {"type": "Point", "coordinates": [37.543343698121596, 36.647544869357716]}}, {"type": "Feature", "properties": {"norad_id": 36152, "name": "FENGYUN 1C DEB", "group": "fengyun-1c-debris", "lat": -77.62855284628469, "lon": 86.14136725557637, "alt_km": 855.372446316157, "timestamp": "2025-12-27T22:26:48.890735+00:00", "meta": {"OBJECT_NAME": "FENGYUN 1C DEB", "OBJECT_ID": "1999-025DRZ", "EPOCH": "2025-12-18T08:24:14.818464", "MEAN_MOTION": 14.17273973, "ECCENTRICITY": 0.00557903, "INCLINATION": 98.7554, "RA_OF_ASC_NODE": 32.0659, "ARG_OF_PERICENTER": 196.1632, "MEAN_ANOMALY": 163.7765, "EPHEMERIS_TYPE": 0, "CLASSIFICATION_TYPE": "U", "NORAD_CAT_ID": 36152, "ELEMENT_SET_NO": 999, "REV_AT_EPOCH": 64236, "BSTAR": 0.00095568478, "MEAN_MOTION_DOT": 1.917e-05, "MEAN_MOTION_DDOT": 0}, "tle": {"line1": "1 36152U 99025DRZ 25352.35017151  .00001917  00000+0  95568-3 0  9995", "line2": "2 36152  98.7554  32.0659 0055790 196.1632 163.7765 14.17273973642366"}}, "geometry": {"type": "Point", "coordinates": [86.14136725557637, -77.62855284628469]}}, {"type": "Feature", "properties": {"norad_id": 36160, "name": "FENGYUN 1C DEB", "group": "fengyun-1c-debris", "lat": -59.404080355335445, "lon": 8.196380519393891, "alt_km": 920.0432005644161, "timestamp": "2025-12-27T22:26:48.890744+00:00", "meta": {"OBJECT_NAME": "FENGYUN 1C DEB", "OBJECT_ID": "1999-025DSH", "EPOCH": "2025-12-25T08:09:13.972320", "MEAN_MOTION": 14.13230256, "ECCENTRICITY": 0.0135692, "INCLINATION": 98.139, "RA_OF_ASC_NODE": 199.8398, "ARG_OF_PERICENTER": 116.0735, "MEAN_ANOMALY": 245.4478, "EPHEMERIS_TYPE": 0, "CLASSIFICATION_TYPE": "U", "NORAD_CAT_ID": 36160, "ELEMENT_SET_NO": 999, "REV_AT_EPOCH": 60230, "BSTAR": 0.00022345, "MEAN_MOTION_DOT": 4.2e-06, "MEAN_MOTION_DDOT": 0}, "tle": {"line1": "1 36160U 99025DSH 25359.33974505  .00000420  00000+0  22345-3 0  9995", "line2": "2 36160  98.1390 199.8398 0135692 116.0735 245.4478 14.13230256602306"}}, "geometry": {"type": "Point", "coordinates": [8.196380519393891, -59.404080355335445]}}, {"type": "Feature", "properties": {"norad_id": 36163, "name": "FENGYUN 1C DEB", "group": "fengyun-1c-debris", "lat": -7.761696628228064, "lon": 26.17718541141247, "alt_km": 725.2870519922035, "timestamp": "2025-12-27T22:26:48.890754+00:00", "meta": {"OBJECT_NAME": "FENGYUN 1C DEB", "OBJECT_ID": "1999-025DSL", "EPOCH": "2025-12-19T12:50:06.955008", "MEAN_MOTION": 14.59242955, "ECCENTRICITY": 0.0039086, "INCLINATION": 99.0787, "RA_OF_ASC_NODE": 198.2455, "ARG_OF_PERICENTER": 50.867, "MEAN_ANOMALY": 309.5991, "EPHEMERIS_TYPE": 0, "CLASSIFICATION_TYPE": "U", "NORAD_CAT_ID": 36163, "ELEMENT_SET_NO": 999, "REV_AT_EPOCH": 89286, "BSTAR": 0.0021304, "MEAN_MOTION_DOT": 0.0001012, "MEAN_MOTION_DDOT": 0}, "tle": {"line1": "1 36163U 99025DSL 25353.53480272  .00010120  00000+0  21304-2 0  9998", "line2": "2 36163  99.0787 198.2455 0039086  50.8670 309.5991 14.59242955892862"}}, "geometry": {"type": "Point", "coordinates": [26.17718541141247, -7.761696628228064]}}, {"type": "Feature", "properties": {"norad_id": 36167, "name": "FENGYUN 1C DEB", "group": "fengyun-1c-debris", "lat": 78.21597011686369, "lon": 137.841344409729, "alt_km": 728.8532243865484, "timestamp": "2025-12-27T22:26:48.890764+00:00", "meta": {"OBJECT_NAME": "FENGYUN 1C DEB", "OBJECT_ID": "1999-025DSQ", "EPOCH": "2025-12-21T23:29:57.430752", "MEAN_MOTION": 14.49314917, "ECCENTRICITY": 0.00688049, "INCLINATION": 98.8145, "RA_OF_ASC_NODE": 263.5651, "ARG_OF_PERICENTER": 216.098, "MEAN_ANOMALY": 143.5557, "EPHEMERIS_TYPE": 0, "CLASSIFICATION_TYPE": "U", "NORAD_CAT_ID": 36167, "ELEMENT_SET_NO": 999, "REV_AT_EPOCH": 67413, "BSTAR": 0.00094360862, "MEAN_MOTION_DOT": 3.662e-05, "MEAN_MOTION_DDOT": 0}, "tle": {"line1": "1 36167U 99025DSQ 25355.97913693  .00003662  00000+0  94361-3 0  9997", "line2": "2 36167  98.8145 263.5651 0068804 216.0980 143.5557 14.49314917674134"}}, "geometry": {"type": "Point", "coordinates": [137.841344409729, 78.21597011686369]}}]}